$$SOE
2460147.500000000, A.D. 2023-Jul-22 00:00:00.0000, 2.166947538116141E+08, -1.734166828705987E+08, -2.468645499858718E+07,
2460154.500000000, A.D. 2023-Jul-29 00:00:00.0000, 2.235385495617003E+08, -1.631638590433859E+08, -2.017581050641612E+07,
2460161.500000000, A.D. 2023-Aug-05 00:00:00.0000, 2.298744910634628E+08, -1.525403841355469E+08, -1.561935145406946E+07,
2460168.500000000, A.D. 2023-Aug-12 00:00:00.0000, 2.356815645189079E+08, -1.415659995853514E+08, -1.102698007045502E+07,
2460175.500000000, A.D. 2023-Aug-19 00:00:00.0000, 2.409394541659223E+08, -1.302617743239838E+08, -6.408936866294034E+06,
2460182.500000000, A.D. 2023-Aug-26 00:00:00.0000, 2.456286355901186E+08, -1.186501156831414E+08, -1.775789838459410E+06,
2460189.500000000, A.D. 2023-Sep-02 00:00:00.0000, 2.497304742210762E+08, -1.067547747488214E+08, 2.861579079353631E+06,
2460196.500000000, A.D. 2023-Sep-09 00:00:00.0000, 2.532273287309049E+08, -9.460084533550186E+07, 7.491990542903189E+06,
2460203.500000000, A.D. 2023-Sep-16 00:00:00.0000, 2.561026591164382E+08, -8.221475573107527E+07, 1.210398748739979E+07,
2460210.500000000, A.D. 2023-Sep-23 00:00:00.0000, 2.583411394165941E+08, -6.962425201787317E+07, 1.668585815908204E+07,
2460217.500000000, A.D. 2023-Sep-30 00:00:00.0000, 2.599287741575954E+08, -5.685837090046068E+07, 2.122566280557615E+07,
2460224.500000000, A.D. 2023-Oct-07 00:00:00.0000, 2.608530154542452E+08, -4.394740175236991E+07, 2.571126437684764E+07,
2460231.500000000, A.D. 2023-Oct-14 00:00:00.0000, 2.611028808924033E+08, -3.092284039450593E+07, 3.013036302129906E+07,
2460238.500000000, A.D. 2023-Oct-21 00:00:00.0000, 2.606690743254192E+08, -1.781733222806238E+07, 3.447053431788409E+07,
2460245.500000000, A.D. 2023-Oct-28 00:00:00.0000, 2.595441069127968E+08, -4.664601751533721E+06, 3.871927161341515E+07,
2460252.500000000, A.D. 2023-Nov-04 00:00:00.0000, 2.577224157558963E+08, 8.500631376606375E+06, 4.286403250916306E+07,
2460259.500000000, A.D. 2023-Nov-11 00:00:00.0000, 2.552004787689897E+08, 2.164274960757229E+07, 4.689228935389148E+07,
2460266.500000000, A.D. 2023-Nov-18 00:00:00.0000, 2.519769243347588E+08, 3.472534835642265E+07, 5.079158356372117E+07,
2460273.500000000, A.D. 2023-Nov-25 00:00:00.0000, 2.480526340340296E+08, 4.771136058770220E+07, 5.454958352706737E+07,
2460280.500000000, A.D. 2023-Dec-02 00:00:00.0000, 2.434308366069374E+08, 6.056319502525521E+07, 5.815414576650188E+07,
2460287.500000000, A.D. 2023-Dec-09 00:00:00.0000, 2.381171912968174E+08, 7.324288758448303E+07, 6.159337893026267E+07,
2460294.500000000, A.D. 2023-Dec-16 00:00:00.0000, 2.321198589214072E+08, 8.571226542378160E+07, 6.485571008027788E+07,
2460301.500000000, A.D. 2023-Dec-23 00:00:00.0000, 2.254495590929686E+08, 9.793312338985544E+07, 6.792995269330673E+07,
2460308.500000000, A.D. 2023-Dec-30 00:00:00.0000, 2.181196103741414E+08, 1.098674127064467E+08, 7.080537587966755E+07,
2460315.500000000, A.D. 2024-Jan-06 00:00:00.0000, 2.101459498758710E+08, 1.214774380656138E+08, 7.347177402373931E+07,
2460322.500000000, A.D. 2024-Jan-13 00:00:00.0000, 2.015471339479681E+08, 1.327260595139390E+08, 7.591953557287961E+07,
2460329.500000000, A.D. 2024-Jan-20 00:00:00.0000, 1.923443198696809E+08, 1.435769001316291E+08, 7.813971020423464E+07,
2460336.500000000, A.D. 2024-Jan-27 00:00:00.0000, 1.825612254823587E+08, 1.539945578329643E+08, 8.012407366224061E+07,
2460343.500000000, A.D. 2024-Feb-03 00:00:00.0000, 1.722240656544690E+08, 1.639448178046616E+08, 8.186518926845643E+07,
2460350.500000000, A.D. 2024-Feb-10 00:00:00.0000, 1.613614655575380E+08, 1.733948625902819E+08, 8.335646509875952E+07,
2460357.500000000, A.D. 2024-Feb-17 00:00:00.0000, 1.500043510061410E+08, 1.823134770211236E+08, 8.459220588847594E+07,
2460364.500000000, A.D. 2024-Feb-24 00:00:00.0000, 1.381858164470623E+08, 1.906712451604075E+08, 8.556765879012454E+07,
2460371.500000000, A.D. 2024-Mar-02 00:00:00.0000, 1.259409716190806E+08, 1.984407364110205E+08, 8.627905218470509E+07,
2460378.500000000, A.D. 2024-Mar-09 00:00:00.0000, 1.133067684505639E+08, 2.055966780121682E+08, 8.672362683884719E+07,
2460385.500000000, A.D. 2024-Mar-16 00:00:00.0000, 1.003218104347530E+08, 2.121161115924866E+08, 8.689965882575580E+07,
2460392.500000000, A.D. 2024-Mar-23 00:00:00.0000, 8.702614661259671E+07, 2.179785326100498E+08, 8.680647389466771E+07,
2460399.500000000, A.D. 2024-Mar-30 00:00:00.0000, 7.346105048650716E+07, 2.231660106647485E+08, 8.644445321681413E+07,
2460406.500000000, A.D. 2024-Apr-06 00:00:00.0000, 5.966878691892659E+07, 2.276632856958827E+08, 8.581503009459917E+07,
2460413.500000000, A.D. 2024-Apr-13 00:00:00.0000, 4.569237358411015E+07, 2.314578397326796E+08, 8.492067746577598E+07,
2460420.500000000, A.D. 2024-Apr-20 00:00:00.0000, 3.157533918206970E+07, 2.345399461208093E+08, 8.376488674817197E+07,
2460427.500000000, A.D. 2024-Apr-27 00:00:00.0000, 1.736148007460208E+07, 2.369026953481595E+08, 8.235213850199093E+07,
2460434.500000000, A.D. 2024-May-04 00:00:00.0000, 3.094618562343134E+06, 2.385419969122000E+08, 8.068786538033174E+07,
2460441.500000000, A.D. 2024-May-11 00:00:00.0000, -1.118163394404938E+07, 2.394565577119791E+08, 7.877840800450574E+07,
2460448.500000000, A.D. 2024-May-18 00:00:00.0000, -2.542410595185594E+07, 2.396478379778320E+08, 7.663096453220825E+07,
2460455.500000000, A.D. 2024-May-25 00:00:00.0000, -3.959028451702263E+07, 2.391199860886295E+08, 7.425353477327573E+07,
2460462.500000000, A.D. 2024-Jun-01 00:00:00.0000, -5.363852115032754E+07, 2.378797538914069E+08, 7.165485975988278E+07,
2460469.500000000, A.D. 2024-Jun-08 00:00:00.0000, -6.752822282779691E+07, 2.359363944313167E+08, 6.884435769851558E+07,
2460476.500000000, A.D. 2024-Jun-15 00:00:00.0000, -8.122002614941238E+07, 2.333015447675430E+08, 6.583205727434394E+07,
2460483.500000000, A.D. 2024-Jun-22 00:00:00.0000, -9.467595447303054E+07, 2.299890973267101E+08, 6.262852944754320E+07,
2460490.500000000, A.D. 2024-Jun-29 00:00:00.0000, -1.078595593203509E+08, 2.260150603272933E+08, 5.924481869432551E+07,
2460497.500000000, A.D. 2024-Jul-06 00:00:00.0000, -1.207360429261515E+08, 2.213974071158927E+08, 5.569237407033360E+07,
2460504.500000000, A.D. 2024-Jul-13 00:00:00.0000, -1.332723598850798E+08, 2.161559194812577E+08, 5.198298090619095E+07,
2460511.500000000, A.D. 2024-Jul-20 00:00:00.0000, -1.454373001211449E+08, 2.103120282766303E+08, 4.812869411846311E+07,
2460518.500000000, A.D. 2024-Jul-27 00:00:00.0000, -1.572015543597823E+08, 2.038886524511090E+08, 4.414177375628179E+07,
2460525.500000000, A.D. 2024-Aug-03 00:00:00.0000, -1.685377625961136E+08, 1.969100380469949E+08, 4.003462328564148E+07,
2460532.500000000, A.D. 2024-Aug-10 00:00:00.0000, -1.794205463368777E+08, 1.894015989251049E+08, 3.581973104662063E+07,
2460539.500000000, A.D. 2024-Aug-17 00:00:00.0000, -1.898265256527592E+08, 1.813897607898090E+08, 3.150961521980970E+07,
2460546.500000000, A.D. 2024-Aug-24 00:00:00.0000, -1.997343222147712E+08, 1.729018098114571E+08, 2.711677254058676E+07,
2460553.500000000, A.D. 2024-Aug-31 00:00:00.0000, -2.091245494860458E+08, 1.639657468846865E+08, 2.265363090814266E+07,
2460560.500000000, A.D. 2024-Sep-07 00:00:00.0000, -2.179797910387758E+08, 1.546101485418462E+08, 1.813250595689097E+07,
2460567.500000000, A.D. 2024-Sep-14 00:00:00.0000, -2.262845682612431E+08, 1.448640362136270E+08, 1.356556168936758E+07,
2460574.500000000, A.D. 2024-Sep-21 00:00:00.0000, -2.340253008266733E+08, 1.347567547632905E+08, 8.964775357406907E+06,
2460581.500000000, A.D. 2024-Sep-28 00:00:00.0000, -2.411902617227546E+08, 1.243178574223778E+08, 4.341906287285663E+06,
2460588.500000000, A.D. 2024-Oct-05 00:00:00.0000, -2.477695244031117E+08, 1.135769973312391E+08, -2.915318168492392E+05,
2460595.500000000, A.D. 2024-Oct-12 00:00:00.0000, -2.537549035759358E+08, 1.025638287038499E+08, -4.924294976237837E+06,
2460602.500000000, A.D. 2024-Oct-19 00:00:00.0000, -2.591398924885105E+08, 9.130791727624904E+07, -9.545429498245694E+06,
2460609.500000000, A.D. 2024-Oct-26 00:00:00.0000, -2.639195977556065E+08, 7.983865908597641E+07, -1.414428926880848E+07,
2460616.500000000, A.D. 2024-Nov-02 00:00:00.0000, -2.680906723830354E+08, 6.818520719233835E+07, -1.871055003729584E+07,
2460623.500000000, A.D. 2024-Nov-09 00:00:00.0000, -2.716512477056969E+08, 5.637640604292846E+07, -2.323422093354804E+07,
2460630.500000000, A.D. 2024-Nov-16 00:00:00.0000, -2.746008649403700E+08, 4.444073311881173E+07, -2.770565345542808E+07,
2460637.500000000, A.D. 2024-Nov-23 00:00:00.0000, -2.769404069432372E+08, 3.240624740210718E+07, -3.211554817062930E+07,
2460644.500000000, A.D. 2024-Nov-30 00:00:00.0000, -2.786720305143767E+08, 2.030054418990081E+07, -3.645495938651514E+07,
2460651.500000000, A.D. 2024-Dec-07 00:00:00.0000, -2.797990992979314E+08, 8.150716224640362E+06, -4.071529801606597E+07,
2460658.500000000, A.D. 2024-Dec-14 00:00:00.0000, -2.803261183576223E+08, -4.016678094818631E+06, -4.488833269117557E+07,
2460665.500000000, A.D. 2024-Dec-21 00:00:00.0000, -2.802586730706128E+08, -1.617564112548955E+07, -4.896618921689551E+07,
2460672.500000000, A.D. 2024-Dec-28 00:00:00.0000, -2.796033706360076E+08, -2.830076043896748E+07, -5.294134898644059E+07,
2460679.500000000, A.D. 2025-Jan-04 00:00:00.0000, -2.783677818067672E+08, -4.036722938732616E+07, -5.680664658331982E+07,
2460686.500000000, A.D. 2025-Jan-11 00:00:00.0000, -2.765603848064207E+08, -5.235086254089859E+07, -6.055526643079790E+07,
2460693.500000000, A.D. 2025-Jan-18 00:00:00.0000, -2.741905124463141E+08, -6.422810733540484E+07, -6.418073863096933E+07,
2460700.500000000, A.D. 2025-Jan-25 00:00:00.0000, -2.712683022718621E+08, -7.597605280124004E+07, -6.767693419937968E+07,
2460707.500000000, A.D. 2025-Feb-01 00:00:00.0000, -2.678046495854786E+08, -8.757243577489072E+07, -7.103805984737757E+07,
2460714.500000000, A.D. 2025-Feb-08 00:00:00.0000, -2.638111632897722E+08, -9.899564491996410E+07, -7.425865243360519E+07,
$$EOE